{"type": "FeatureCollection", "features": [ {"type": "Feature", "properties": {"norad_id": 41335, "name": "SENTINEL-3A", "group": "resource", "lat": 36.07829784232064, "lon": -125.60780436871927, "alt_km": 799.662412291179, "timestamp": "2025-12-08T23:34:03.626887+00:00", "meta": {"OBJECT_NAME": "SENTINEL-3A", "OBJECT_ID": "2016-011A", "EPOCH": "2025-12-08T14:28:57.208224", "MEAN_MOTION": 14.26744468, "ECCENTRICITY": 9.628e-05, "INCLINATION": 98.6212, "RA_OF_ASC_NODE": 47.6728, "ARG_OF_PERICENTER": 92.8922, "MEAN_ANOMALY": 267.2369, "EPHEMERIS_TYPE": 0, "CLASSIFICATION_TYPE": "U", "NORAD_CAT_ID": 41335, "ELEMENT_SET_NO": 999, "REV_AT_EPOCH": 51088, "BSTAR": 0.00014817186, "MEAN_MOTION_DOT": 3.15e-06, "MEAN_MOTION_DDOT": 0}, "tle": {"line1": "1 41335U 16011A   25342.60343991  .00000315  00000+0  14817-3 0  9998", "line2": "2 41335  98.6212  47.6728 0000962  92.8922 267.2369 14.26744468510882"}}, "geometry": {"type": "Point", "coordinates": [-125.60780436871927, 36.07829784232064]}}, {"type": "Feature", "properties": {"norad_id": 41556, "name": "ZIYUAN 3-2 (ZY 3-2)", "group": "resource", "lat": 55.12617272034884, "lon": 46.456432773328295, "alt_km": 503.8977135778987, "timestamp": "2025-12-08T23:34:03.626897+00:00", "meta": {"OBJECT_NAME": "ZIYUAN 3-2 (ZY 3-2)", "OBJECT_ID": "2016-033A", "EPOCH": "2025-12-08T15:25:49.431936", "MEAN_MOTION": 15.21412094, "ECCENTRICITY": 0.00124112, "INCLINATION": 97.4044, "RA_OF_ASC_NODE": 56.8773, "ARG_OF_PERICENTER": 265.1242, "MEAN_ANOMALY": 94.8577, "EPHEMERIS_TYPE": 0, "CLASSIFICATION_TYPE": "U", "NORAD_CAT_ID": 41556, "ELEMENT_SET_NO": 999, "REV_AT_EPOCH": 52901, "BSTAR": 0.00046915701, "MEAN_MOTION_DOT": 0.00010487, "MEAN_MOTION_DDOT": 0}, "tle": {"line1": "1 41556U 16033A   25342.64293324  .00010487  00000+0  46916-3 0  9991", "line2": "2 41556  97.4044  56.8773 0012411 265.1242  94.8577 15.21412094529014"}}, "geometry": {"type": "Point", "coordinates": [46.456432773328295, 55.12617272034884]}}, {"type": "Feature", "properties": {"norad_id": 41599, "name": "CARTOSAT-2C", "group": "resource", "lat": 28.878260080203315, "lon": 36.11706941312294, "alt_km": 501.74667823831624, "timestamp": "2025-12-08T23:34:03.626907+00:00", "meta": {"OBJECT_NAME": "CARTOSAT-2C", "OBJECT_ID": "2016-040A", "EPOCH": "2025-12-08T15:32:10.201056", "MEAN_MOTION": 15.19234745, "ECCENTRICITY": 0.00109448, "INCLINATION": 97.4767, "RA_OF_ASC_NODE": 39.9396, "ARG_OF_PERICENTER": 77.6924, "MEAN_ANOMALY": 282.5535, "EPHEMERIS_TYPE": 0, "CLASSIFICATION_TYPE": "U", "NORAD_CAT_ID": 41599, "ELEMENT_SET_NO": 999, "REV_AT_EPOCH": 52478, "BSTAR": 0.00038236811, "MEAN_MOTION_DOT": 8.002e-05, "MEAN_MOTION_DDOT": 0}, "tle": {"line1": "1 41599U 16040A   25342.64734029  .00008002  00000+0  38237-3 0  9995", "line2": "2 41599  97.4767  39.9396 0010944  77.6924 282.5535 15.19234745524789"}}, "geometry": {"type": "Point", "coordinates": [36.11706941312294, 28.878260080203315]}}, {"type": "Feature", "properties": {"norad_id": 41601, "name": "SKYSAT-C1", "group": "resource", "lat": -81.65527854407448, "lon": 143.53344416517638, "alt_km": 476.7641209805279, "timestamp": "2025-12-08T23:34:03.626918+00:00", "meta": {"OBJECT_NAME": "SKYSAT-C1", "OBJECT_ID": "2016-040C", "EPOCH": "2025-12-08T14:34:37.989696", "MEAN_MOTION": 15.32474891, "ECCENTRICITY": 0.00028295, "INCLINATION": 96.9825, "RA_OF_ASC_NODE": 19.854, "ARG_OF_PERICENTER": 27.1323, "MEAN_ANOMALY": 333.0067, "EPHEMERIS_TYPE": 0, "CLASSIFICATION_TYPE": "U", "NORAD_CAT_ID": 41601, "ELEMENT_SET_NO": 999, "REV_AT_EPOCH": 52864, "BSTAR": 0.00038029134, "MEAN_MOTION_DOT": 0.0001186, "MEAN_MOTION_DDOT": 0}, "tle": {"line1": "1 41601U 16040C   25342.60738414  .00011860  00000+0  38029-3 0  9992", "line2": "2 41601  96.9825  19.8540 0002829  27.1323 333.0067 15.32474891528640"}}, "geometry": {"type": "Point", "coordinates": [143.53344416517638, -81.65527854407448]}}, {"type": "Feature", "properties": {"norad_id": 41603, "name": "LAPAN-A3", "group": "resource", "lat": 61.96522692067065, "lon": -32.9468218851232, "alt_km": 463.476904455797, "timestamp": "2025-12-08T23:34:03.626928+00:00", "meta": {"OBJECT_NAME": "LAPAN-A3", "OBJECT_ID": "2016-040E", "EPOCH": "2025-12-08T13:53:10.055040", "MEAN_MOTION": 15.3150202, "ECCENTRICITY": 0.00101764, "INCLINATION": 97.1429, "RA_OF_ASC_NODE": 340.286, "ARG_OF_PERICENTER": 349.6263, "MEAN_ANOMALY": 10.4767, "EPHEMERIS_TYPE": 0, "CLASSIFICATION_TYPE": "U", "NORAD_CAT_ID": 41603, "ELEMENT_SET_NO": 999, "REV_AT_EPOCH": 52562, "BSTAR": 0.00021063445, "MEAN_MOTION_DOT": 6.343e-05, "MEAN_MOTION_DDOT": 0}, "tle": {"line1": "1 41603U 16040E   25342.57858860  .00006343  00000+0  21063-3 0  9998", "line2": "2 41603  97.1429 340.2860 0010176 349.6263  10.4767 15.31502020525623"}}, "geometry": {"type": "Point", "coordinates": [-32.9468218851232, 61.96522692067065]}}, {"type": "Feature", "properties": {"norad_id": 41604, "name": "BIROS", "group": "resource", "lat": -11.132273637675246, "lon": -167.13193466855228, "alt_km": 310.49659304841134, "timestamp": "2025-12-08T23:34:03.626938+00:00", "meta": {"OBJECT_NAME": "BIROS", "OBJECT_ID": "2016-040F", "EPOCH": "2025-12-08T15:12:13.776192", "MEAN_MOTION": 15.87952948, "ECCENTRICITY": 0.00030719, "INCLINATION": 97.0685, "RA_OF_ASC_NODE": 13.9056, "ARG_OF_PERICENTER": 155.8564, "MEAN_ANOMALY": 204.2853, "EPHEMERIS_TYPE": 0, "CLASSIFICATION_TYPE": "U", "NORAD_CAT_ID": 41604, "ELEMENT_SET_NO": 999, "REV_AT_EPOCH": 52807, "BSTAR": 0.00067624363, "MEAN_MOTION_DOT": 0.00185324, "MEAN_MOTION_DDOT": 0}, "tle": {"line1": "1 41604U 16040F   25342.63349278  .00185324  00000+0  67624-3 0  9994", "line2": "2 41604  97.0685  13.9056 0003071 155.8564 204.2853 15.87952948528075"}}, "geometry": {"type": "Point", "coordinates": [-167.13193466855228, -11.132273637675246]}}, {"type": "Feature", "properties": {"norad_id": 41727, "name": "GAOFEN-3", "group": "resource", "lat": -33.56013822481265, "lon": -5.746146525477707, "alt_km": 757.5628888172168, "timestamp": "2025-12-08T23:34:03.626948+00:00", "meta": {"OBJECT_NAME": "GAOFEN-3", "OBJECT_ID": "2016-049A", "EPOCH": "2025-12-08T15:23:58.183296", "MEAN_MOTION": 14.42212377, "ECCENTRICITY": 0.00014817, "INCLINATION": 98.404, "RA_OF_ASC_NODE": 348.2905, "ARG_OF_PERICENTER": 68.977, "MEAN_ANOMALY": 291.1578, "EPHEMERIS_TYPE": 0, "CLASSIFICATION_TYPE": "U", "NORAD_CAT_ID": 41727, "ELEMENT_SET_NO": 999, "REV_AT_EPOCH": 49118, "BSTAR": 6.6141248e-05, "MEAN_MOTION_DOT": 1.74e-06, "MEAN_MOTION_DDOT": 0}, "tle": {"line1": "1 41727U 16049A   25342.64164564  .00000174  00000+0  66141-4 0  9996", "line2": "2 41727  98.4040 348.2905 0001481  68.9770 291.1578 14.42212377491189"}}, "geometry": {"type": "Point", "coordinates": [-5.746146525477707, -33.56013822481265]}}, {"type": "Feature", "properties": {"norad_id": 41771, "name": "SKYSAT-C4", "group": "resource", "lat": 69.4102387021786, "lon": -10.559502772381505, "alt_km": 432.88159506177, "timestamp": "2025-12-08T23:34:03.626959+00:00", "meta": {"OBJECT_NAME": "SKYSAT-C4", "OBJECT_ID": "2016-058B", "EPOCH": "2025-12-08T15:28:33.367296", "MEAN_MOTION": 15.42072055, "ECCENTRICITY": 0.00011217, "INCLINATION": 96.9373, "RA_OF_ASC_NODE": 8.0317, "ARG_OF_PERICENTER": 131.9875, "MEAN_ANOMALY": 228.147, "EPHEMERIS_TYPE": 0, "CLASSIFICATION_TYPE": "U", "NORAD_CAT_ID": 41771, "ELEMENT_SET_NO": 999, "REV_AT_EPOCH": 51604, "BSTAR": 0.00043998401, "MEAN_MOTION_DOT": 0.00018741, "MEAN_MOTION_DDOT": 0}, "tle": {"line1": "1 41771U 16058B   25342.64483064  .00018741  00000+0  43998-3 0  9997", "line2": "2 41771  96.9373   8.0317 0001121 131.9875 228.1470 15.42072055516048"}}, "geometry": {"type": "Point", "coordinates": [-10.559502772381505, 69.4102387021786]}}, {"type": "Feature", "properties": {"norad_id": 41772, "name": "SKYSAT-C5", "group": "resource", "lat": 76.69777448206455, "lon": -4.811664075507346, "alt_km": 452.2647517838768, "timestamp": "2025-12-08T23:34:03.626969+00:00", "meta": {"OBJECT_NAME": "SKYSAT-C5", "OBJECT_ID": "2016-058C", "EPOCH": "2025-12-08T15:24:16.799040", "MEAN_MOTION": 15.35248104, "ECCENTRICITY": 0.00022489, "INCLINATION": 97.076, "RA_OF_ASC_NODE": 26.5564, "ARG_OF_PERICENTER": 143.4055, "MEAN_ANOMALY": 216.7344, "EPHEMERIS_TYPE": 0, "CLASSIFICATION_TYPE": "U", "NORAD_CAT_ID": 41772, "ELEMENT_SET_NO": 999, "REV_AT_EPOCH": 51453, "BSTAR": 0.00038262685, "MEAN_MOTION_DOT": 0.00013027, "MEAN_MOTION_DDOT": 0}, "tle": {"line1": "1 41772U 16058C   25342.64186110  .00013027  00000+0  38263-3 0  9991", "line2": "2 41772  97.0760  26.5564 0002248 143.4055 216.7344 15.35248104514536"}}, "geometry": {"type": "Point", "coordinates": [-4.811664075507346, 76.69777448206455]}}, {"type": "Feature", "properties": {"norad_id": 41773, "name": "SKYSAT-C2", "group": "resource", "lat": 61.47524690667529, "lon": -5.466758210809072, "alt_km": 445.631681296838, "timestamp": "2025-12-08T23:34:03.626979+00:00", "meta": {"OBJECT_NAME": "SKYSAT-C2", "OBJECT_ID": "2016-058D", "EPOCH": "2025-12-08T15:29:09.817728", "MEAN_MOTION": 15.37129465, "ECCENTRICITY": 0.00046492, "INCLINATION": 97.036, "RA_OF_ASC_NODE": 7.3456, "ARG_OF_PERICENTER": 44.7513, "MEAN_ANOMALY": 315.4107, "EPHEMERIS_TYPE": 0, "CLASSIFICATION_TYPE": "U", "NORAD_CAT_ID": 41773, "ELEMENT_SET_NO": 999, "REV_AT_EPOCH": 51573, "BSTAR": 0.00041366327, "MEAN_MOTION_DOT": 0.00014974, "MEAN_MOTION_DDOT": 0}, "tle": {"line1": "1 41773U 16058D   25342.64525252  .00014974  00000+0  41366-3 0  9996", "line2": "2 41773  97.0360   7.3456 0004649  44.7513 315.4107 15.37129465515736"}}, "geometry": {"type": "Point", "coordinates": [-5.466758210809072, 61.47524690667529]}}]}